SENTINEL-2B             
1 42063U 17013A   25331.66895688  .00000180  00000+0  85446-4 0  9996
2 42063  98.5643  44.3254 0001131 103.5348 256.5961 14.30826294455821
CARTOSAT-2E             
1 42767U 17036C   25334.20123778  .00006126  00000+0  29339-3 0  9993
2 42767  97.4579  31.9502 0002755 288.0201  72.0734 15.19303818467930
FORMOSAT-5              
1 42920U 17049A   25334.15362020  .00000260  00000+0  76786-4 0  9999
2 42920  98.2466  48.7216 0010504 337.1875  22.8852 14.50993152437815
SENTINEL-5P             
1 42969U 17064A   25334.07930976  .00000108  00000+0  72193-4 0  9990
2 42969  98.7765 272.7769 0000968  84.5363 275.5924 14.19512321421310
SKYSAT-C11              
1 42987U 17068A   25334.13130250  .00025092  00000+0  50361-3 0  9999
2 42987  97.4135 111.3193 0000835 119.2880 240.8453 15.46670612452369
SKYSAT-C10              
1 42988U 17068B   25334.12299330  .00013620  00000+0  44436-3 0  9994
2 42988  97.4249 104.9421 0005367 130.0011 230.1702 15.31893388451864
SKYSAT-C9               
1 42989U 17068C   25334.11721200  .00016089  00000+0  46664-3 0  9997
2 42989  97.4176 104.2769 0010600 128.8320 231.3871 15.35556531452148
SKYSAT-C8               
1 42990U 17068D   25334.09702375  .00013176  00000+0  42211-3 0  9996
2 42990  97.4267 104.0467 0002355  29.0733 331.0639 15.32496548451778
