{
  "type": "FeatureCollection",
  "features": [
    {
      "type": "Feature",
      "properties": {
        "OBJECT_NAME": "SENTINEL-2B",
        "OBJECT_ID": "2017-013A",
        "EPOCH": "2025-11-27T16:03:17.874432",
        "MEAN_MOTION": 14.30826294,
        "ECCENTRICITY": 0.00011314,
        "INCLINATION": 98.5643,
        "RA_OF_ASC_NODE": 44.3254,
        "ARG_OF_PERICENTER": 103.5348,
        "MEAN_ANOMALY": 256.5961,
        "EPHEMERIS_TYPE": 0,
        "CLASSIFICATION_TYPE": "U",
        "NORAD_CAT_ID": 42063,
        "ELEMENT_SET_NO": 999,
        "REV_AT_EPOCH": 45582,
        "BSTAR": 8.5446015e-05,
        "MEAN_MOTION_DOT": 1.8e-06,
        "MEAN_MOTION_DDOT": 0,
        "norad_id": 42063,
        "name": "SENTINEL-2B",
        "group": "resource",
        "longitude_deg": NaN,
        "latitude_deg": NaN,
        "alt_km": NaN,
        "orbit_class": "HEO",
        "timestamp": "2025-11-30T09:33:02.506635+00:00"
      },
      "geometry": {
        "type": "Point",
        "coordinates": [
          NaN,
          NaN
        ]
      }
    },
    {
      "type": "Feature",
      "properties": {
        "OBJECT_NAME": "CARTOSAT-2E",
        "OBJECT_ID": "2017-036C",
        "EPOCH": "2025-11-30T04:49:46.944192",
        "MEAN_MOTION": 15.19303818,
        "ECCENTRICITY": 0.0002755,
        "INCLINATION": 97.4579,
        "RA_OF_ASC_NODE": 31.9502,
        "ARG_OF_PERICENTER": 288.0201,
        "MEAN_ANOMALY": 72.0734,
        "EPHEMERIS_TYPE": 0,
        "CLASSIFICATION_TYPE": "U",
        "NORAD_CAT_ID": 42767,
        "ELEMENT_SET_NO": 999,
        "REV_AT_EPOCH": 46793,
        "BSTAR": 0.00029339,
        "MEAN_MOTION_DOT": 6.126e-05,
        "MEAN_MOTION_DDOT": 0,
        "norad_id": 42767,
        "name": "CARTOSAT-2E",
        "group": "resource",
        "longitude_deg": NaN,
        "latitude_deg": NaN,
        "alt_km": NaN,
        "orbit_class": "HEO",
        "timestamp": "2025-11-30T09:33:02.506755+00:00"
      },
      "geometry": {
        "type": "Point",
        "coordinates": [
          NaN,
          NaN
        ]
      }
    },
    {
      "type": "Feature",
      "properties": {
        "OBJECT_NAME": "FORMOSAT-5",
        "OBJECT_ID": "2017-049A",
        "EPOCH": "2025-11-30T03:41:12.785280",
        "MEAN_MOTION": 14.50993152,
        "ECCENTRICITY": 0.0010504,
        "INCLINATION": 98.2466,
        "RA_OF_ASC_NODE": 48.7216,
        "ARG_OF_PERICENTER": 337.1875,
        "MEAN_ANOMALY": 22.8852,
        "EPHEMERIS_TYPE": 0,
        "CLASSIFICATION_TYPE": "U",
        "NORAD_CAT_ID": 42920,
        "ELEMENT_SET_NO": 999,
        "REV_AT_EPOCH": 43781,
        "BSTAR": 7.6786e-05,
        "MEAN_MOTION_DOT": 2.6e-06,
        "MEAN_MOTION_DDOT": 0,
        "norad_id": 42920,
        "name": "FORMOSAT-5",
        "group": "resource",
        "longitude_deg": NaN,
        "latitude_deg": NaN,
        "alt_km": NaN,
        "orbit_class": "HEO",
        "timestamp": "2025-11-30T09:33:02.506975+00:00"
      },
      "geometry": {
        "type": "Point",
        "coordinates": [
          NaN,
          NaN
        ]
      }
    },
    {
      "type": "Feature",
      "properties": {
        "OBJECT_NAME": "SENTINEL-5P",
        "OBJECT_ID": "2017-064A",
        "EPOCH": "2025-11-30T01:54:12.363264",
        "MEAN_MOTION": 14.19512321,
        "ECCENTRICITY": 9.68e-05,
        "INCLINATION": 98.7765,
        "RA_OF_ASC_NODE": 272.7769,
        "ARG_OF_PERICENTER": 84.5363,
        "MEAN_ANOMALY": 275.5924,
        "EPHEMERIS_TYPE": 0,
        "CLASSIFICATION_TYPE": "U",
        "NORAD_CAT_ID": 42969,
        "ELEMENT_SET_NO": 999,
        "REV_AT_EPOCH": 42131,
        "BSTAR": 7.2193e-05,
        "MEAN_MOTION_DOT": 1.08e-06,
        "MEAN_MOTION_DDOT": 0,
        "norad_id": 42969,
        "name": "SENTINEL-5P",
        "group": "resource",
        "longitude_deg": NaN,
        "latitude_deg": NaN,
        "alt_km": NaN,
        "orbit_class": "HEO",
        "timestamp": "2025-11-30T09:33:02.507129+00:00"
      },
      "geometry": {
        "type": "Point",
        "coordinates": [
          NaN,
          NaN
        ]
      }
    },
    {
      "type": "Feature",
      "properties": {
        "OBJECT_NAME": "SKYSAT-C11",
        "OBJECT_ID": "2017-068A",
        "EPOCH": "2025-11-30T03:09:04.536000",
        "MEAN_MOTION": 15.46670612,
        "ECCENTRICITY": 8.35e-05,
        "INCLINATION": 97.4135,
        "RA_OF_ASC_NODE": 111.3193,
        "ARG_OF_PERICENTER": 119.288,
        "MEAN_ANOMALY": 240.8453,
        "EPHEMERIS_TYPE": 0,
        "CLASSIFICATION_TYPE": "U",
        "NORAD_CAT_ID": 42987,
        "ELEMENT_SET_NO": 999,
        "REV_AT_EPOCH": 45236,
        "BSTAR": 0.00050361,
        "MEAN_MOTION_DOT": 0.00025092,
        "MEAN_MOTION_DDOT": 0,
        "norad_id": 42987,
        "name": "SKYSAT-C11",
        "group": "resource",
        "longitude_deg": NaN,
        "latitude_deg": NaN,
        "alt_km": NaN,
        "orbit_class": "HEO",
        "timestamp": "2025-11-30T09:33:02.507148+00:00"
      },
      "geometry": {
        "type": "Point",
        "coordinates": [
          NaN,
          NaN
        ]
      }
    },
    {
      "type": "Feature",
      "properties": {
        "OBJECT_NAME": "SKYSAT-C10",
        "OBJECT_ID": "2017-068B",
        "EPOCH": "2025-11-30T02:57:06.621120",
        "MEAN_MOTION": 15.31893388,
        "ECCENTRICITY": 0.0005367,
        "INCLINATION": 97.4249,
        "RA_OF_ASC_NODE": 104.9421,
        "ARG_OF_PERICENTER": 130.0011,
        "MEAN_ANOMALY": 230.1702,
        "EPHEMERIS_TYPE": 0,
        "CLASSIFICATION_TYPE": "U",
        "NORAD_CAT_ID": 42988,
        "ELEMENT_SET_NO": 999,
        "REV_AT_EPOCH": 45186,
        "BSTAR": 0.00044436,
        "MEAN_MOTION_DOT": 0.0001362,
        "MEAN_MOTION_DDOT": 0,
        "norad_id": 42988,
        "name": "SKYSAT-C10",
        "group": "resource",
        "longitude_deg": NaN,
        "latitude_deg": NaN,
        "alt_km": NaN,
        "orbit_class": "HEO",
        "timestamp": "2025-11-30T09:33:02.507154+00:00"
      },
      "geometry": {
        "type": "Point",
        "coordinates": [
          NaN,
          NaN
        ]
      }
    },
    {
      "type": "Feature",
      "properties": {
        "OBJECT_NAME": "SKYSAT-C9",
        "OBJECT_ID": "2017-068C",
        "EPOCH": "2025-11-30T02:48:47.116800",
        "MEAN_MOTION": 15.35556531,
        "ECCENTRICITY": 0.00106,
        "INCLINATION": 97.4176,
        "RA_OF_ASC_NODE": 104.2769,
        "ARG_OF_PERICENTER": 128.832,
        "MEAN_ANOMALY": 231.3871,
        "EPHEMERIS_TYPE": 0,
        "CLASSIFICATION_TYPE": "U",
        "NORAD_CAT_ID": 42989,
        "ELEMENT_SET_NO": 999,
        "REV_AT_EPOCH": 45214,
        "BSTAR": 0.00046664,
        "MEAN_MOTION_DOT": 0.00016089,
        "MEAN_MOTION_DDOT": 0,
        "norad_id": 42989,
        "name": "SKYSAT-C9",
        "group": "resource",
        "longitude_deg": NaN,
        "latitude_deg": NaN,
        "alt_km": NaN,
        "orbit_class": "HEO",
        "timestamp": "2025-11-30T09:33:02.507160+00:00"
      },
      "geometry": {
        "type": "Point",
        "coordinates": [
          NaN,
          NaN
        ]
      }
    },
    {
      "type": "Feature",
      "properties": {
        "OBJECT_NAME": "SKYSAT-C8",
        "OBJECT_ID": "2017-068D",
        "EPOCH": "2025-11-30T02:19:42.852000",
        "MEAN_MOTION": 15.32496548,
        "ECCENTRICITY": 0.0002355,
        "INCLINATION": 97.4267,
        "RA_OF_ASC_NODE": 104.0467,
        "ARG_OF_PERICENTER": 29.0733,
        "MEAN_ANOMALY": 331.0639,
        "EPHEMERIS_TYPE": 0,
        "CLASSIFICATION_TYPE": "U",
        "NORAD_CAT_ID": 42990,
        "ELEMENT_SET_NO": 999,
        "REV_AT_EPOCH": 45177,
        "BSTAR": 0.00042211,
        "MEAN_MOTION_DOT": 0.00013176,
        "MEAN_MOTION_DDOT": 0,
        "norad_id": 42990,
        "name": "SKYSAT-C8",
        "group": "resource",
        "longitude_deg": NaN,
        "latitude_deg": NaN,
        "alt_km": NaN,
        "orbit_class": "HEO",
        "timestamp": "2025-11-30T09:33:02.507167+00:00"
      },
      "geometry": {
        "type": "Point",
        "coordinates": [
          NaN,
          NaN
        ]
      }
    }
  ]
}